start=new Date('2023-01-30T00:00:00.000Z').valueOf();
sats=[{"MEAN_MOTION":"15.06393930","BSTAR":"0.00003266300000","ELEMENT_SET_NO":"999","GP_ID":"223952768","COUNTRY_CODE":"US","MEAN_MOTION_DOT":"0.00000205","PERIOD":"95.593","RCS_SIZE":"LARGE","OBJECT_TYPE":"PAYLOAD","MEAN_MOTION_DDOT":"0.0000000000000","ECCENTRICITY":"0.00010990","MEAN_ANOMALY":"272.8508","EPHEMERIS_TYPE":"0","CLASSIFICATION_TYPE":"U","TLE_LINE1":"1 44735U 19074Y   23029.88349917  .00000205  00000-0  32663-4 0  9990","OBJECT_NAME":"STARLINK-1030","FILE":"3765015","SITE":"AFETR","RA_OF_ASC_NODE":"260.9642","TIME_SYSTEM":"UTC","MEAN_ELEMENT_THEORY":"SGP4","CENTER_NAME":"EARTH","REF_FRAME":"TEME","INCLINATION":"53.0504","APOAPSIS":"547.993","DECAY_DATE":null,"PERIAPSIS":"546.471","ARG_OF_PERICENTER":"87.2606","NORAD_CAT_ID":"44735","LAUNCH_DATE":"2019-11-11","OBJECT_ID":"2019-074Y","TLE_LINE2":"2 44735  53.0504 260.9642 0001099  87.2606 272.8508 15.06393930177421","REV_AT_EPOCH":"17742","SEMIMAJOR_AXIS":"6925.367","EPOCH":"2023-01-29T21:12:14.328288"},{"REV_AT_EPOCH":"17743","SEMIMAJOR_AXIS":"6925.357","TLE_LINE2":"2 44736  53.0511 260.9016 0001131  98.7576 261.3541 15.06397372177430","OBJECT_ID":"2019-074Z","LAUNCH_DATE":"2019-11-11","NORAD_CAT_ID":"44736","EPOCH":"2023-01-29T21:33:28.178784","DECAY_DATE":null,"PERIAPSIS":"546.438","ARG_OF_PERICENTER":"98.7576","APOAPSIS":"548.005","REF_FRAME":"TEME","INCLINATION":"53.0511","SITE":"AFETR","FILE":"3765015","TIME_SYSTEM":"UTC","CENTER_NAME":"EARTH","MEAN_ELEMENT_THEORY":"SGP4","RA_OF_ASC_NODE":"260.9016","ECCENTRICITY":"0.00011310","OBJECT_NAME":"STARLINK-1031","TLE_LINE1":"1 44736U 19074Z   23029.89824281  .00001725  00000-0  13469-3 0  9994","CLASSIFICATION_TYPE":"U","EPHEMERIS_TYPE":"0","MEAN_ANOMALY":"261.3541","OBJECT_TYPE":"PAYLOAD","RCS_SIZE":"LARGE","MEAN_MOTION_DDOT":"0.0000000000000","COUNTRY_CODE":"US","PERIOD":"95.592","MEAN_MOTION_DOT":"0.00001725","MEAN_MOTION":"15.06397372","BSTAR":"0.00013469000000","GP_ID":"223953018","ELEMENT_SET_NO":"999"},{"INCLINATION":"53.0518","REF_FRAME":"TEME","APOAPSIS":"547.991","SITE":"AFETR","FILE":"3765015","RA_OF_ASC_NODE":"260.8476","TIME_SYSTEM":"UTC","CENTER_NAME":"EARTH","MEAN_ELEMENT_THEORY":"SGP4","OBJECT_ID":"2019-074AA","TLE_LINE2":"2 44737  53.0518 260.8476 0001131  84.2423 275.8695 15.06401758177432","SEMIMAJOR_AXIS":"6925.343","REV_AT_EPOCH":"17743","NORAD_CAT_ID":"44737","LAUNCH_DATE":"2019-11-11","EPOCH":"2023-01-29T21:49:23.408544","DECAY_DATE":null,"PERIAPSIS":"546.425","ARG_OF_PERICENTER":"84.2423","COUNTRY_CODE":"US","PERIOD":"95.592","MEAN_MOTION_DOT":"0.00002507","BSTAR":"0.00018711000000","MEAN_MOTION":"15.06401758","GP_ID":"223953769","ELEMENT_SET_NO":"999","ECCENTRICITY":"0.00011310","TLE_LINE1":"1 44737U 19074AA  23029.90929871  .00002507  00000-0  18711-3 0  9992","OBJECT_NAME":"STARLINK-1032","EPHEMERIS_TYPE":"0","MEAN_ANOMALY":"275.8695","CLASSIFICATION_TYPE":"U","OBJECT_TYPE":"PAYLOAD","RCS_SIZE":"LARGE","MEAN_MOTION_DDOT":"0.0000000000000"},{"SITE":"AFETR","FILE":"3765015","RA_OF_ASC_NODE":"260.9171","CENTER_NAME":"EARTH","MEAN_ELEMENT_THEORY":"SGP4","TIME_SYSTEM":"UTC","REF_FRAME":"TEME","INCLINATION":"53.0518","APOAPSIS":"548.090","DECAY_DATE":null,"ARG_OF_PERICENTER":"117.8466","PERIAPSIS":"546.311","TLE_LINE2":"2 44738  53.0518 260.9171 0001285 117.8466 242.2653 15.06404249177425","OBJECT_ID":"2019-074AB","SEMIMAJOR_AXIS":"6925.336","REV_AT_EPOCH":"17742","NORAD_CAT_ID":"44738","LAUNCH_DATE":"2019-11-11","EPOCH":"2023-01-29T21:28:10.234560","MEAN_MOTION":"15.06404249","BSTAR":"-0.00004071700000","GP_ID":"223954519","ELEMENT_SET_NO":"999","COUNTRY_CODE":"US","PERIOD":"95.592","MEAN_MOTION_DOT":"-0.00000888","OBJECT_TYPE":"PAYLOAD","RCS_SIZE":"LARGE","MEAN_MOTION_DDOT":"0.0000000000000","ECCENTRICITY":"0.00012850","TLE_LINE1":"1 44738U 19074AB  23029.89456290 -.00000888  00000-0 -40717-4 0  9995","OBJECT_NAME":"STARLINK-1033","EPHEMERIS_TYPE":"0","MEAN_ANOMALY":"242.2653","CLASSIFICATION_TYPE":"U"},{"COUNTRY_CODE":"US","PERIOD":"94.219","MEAN_MOTION_DOT":"0.00018619","BSTAR":"0.00067619000000","MEAN_MOTION":"15.28355093","ELEMENT_SET_NO":"999","GP_ID":"223953268","ECCENTRICITY":"0.00016600","TLE_LINE1":"1 44739U 19074AC  23029.82473217  .00018619  00000-0  67619-3 0  9995","OBJECT_NAME":"STARLINK-1034","EPHEMERIS_TYPE":"0","MEAN_ANOMALY":"149.7105","CLASSIFICATION_TYPE":"U","OBJECT_TYPE":"PAYLOAD","RCS_SIZE":"LARGE","MEAN_MOTION_DDOT":"0.0000000000000","REF_FRAME":"TEME","INCLINATION":"52.9646","APOAPSIS":"481.870","SITE":"AFETR","FILE":"3765015","RA_OF_ASC_NODE":"227.8573","TIME_SYSTEM":"UTC","CENTER_NAME":"EARTH","MEAN_ELEMENT_THEORY":"SGP4","TLE_LINE2":"2 44739  52.9646 227.8573 0001660 210.3797 149.7105 15.28355093177820","OBJECT_ID":"2019-074AC","SEMIMAJOR_AXIS":"6858.866","REV_AT_EPOCH":"17782","NORAD_CAT_ID":"44739","LAUNCH_DATE":"2019-11-11","EPOCH":"2023-01-29T19:47:36.859488","DECAY_DATE":null,"ARG_OF_PERICENTER":"210.3797","PERIAPSIS":"479.593"},{"DECAY_DATE":null,"PERIAPSIS":"546.331","ARG_OF_PERICENTER":"91.6186","TLE_LINE2":"2 44740  53.0524 260.8672 0001263  91.6186 268.4947 15.06402428177438","OBJECT_ID":"2019-074AD","SEMIMAJOR_AXIS":"6925.341","REV_AT_EPOCH":"17743","NORAD_CAT_ID":"44740","LAUNCH_DATE":"2019-11-11","EPOCH":"2023-01-29T21:44:04.778304","SITE":"AFETR","FILE":"3765015","RA_OF_ASC_NODE":"260.8672","TIME_SYSTEM":"UTC","CENTER_NAME":"EARTH","MEAN_ELEMENT_THEORY":"SGP4","REF_FRAME":"TEME","INCLINATION":"53.0524","APOAPSIS":"548.081","OBJECT_TYPE":"PAYLOAD","RCS_SIZE":"LARGE","MEAN_MOTION_DDOT":"0.0000000000000","ECCENTRICITY":"0.00012630","TLE_LINE1":"1 44740U 19074AD  23029.90561086  .00001643  00000-0  12916-3 0  9997","OBJECT_NAME":"STARLINK-1035","EPHEMERIS_TYPE":"0","MEAN_ANOMALY":"268.4947","CLASSIFICATION_TYPE":"U","BSTAR":"0.00012916000000","MEAN_MOTION":"15.06402428","GP_ID":"223953517","ELEMENT_SET_NO":"999","COUNTRY_CODE":"US","PERIOD":"95.592","MEAN_MOTION_DOT":"0.00001643"},{"TIME_SYSTEM":"UTC","CENTER_NAME":"EARTH","MEAN_ELEMENT_THEORY":"SGP4","RA_OF_ASC_NODE":"260.8151","FILE":"3765015","SITE":"AFETR","APOAPSIS":"547.911","REF_FRAME":"TEME","INCLINATION":"53.0519","ARG_OF_PERICENTER":"99.6099","PERIAPSIS":"546.539","DECAY_DATE":null,"EPOCH":"2023-01-29T22:00:00.660384","LAUNCH_DATE":"2019-11-11","NORAD_CAT_ID":"44741","REV_AT_EPOCH":"17743","SEMIMAJOR_AXIS":"6925.360","TLE_LINE2":"2 44741  53.0519 260.8151 0000991  99.6099 260.5002 15.06396218177437","OBJECT_ID":"2019-074AE","ELEMENT_SET_NO":"999","GP_ID":"223954269","MEAN_MOTION":"15.06396218","BSTAR":"0.00005515600000","MEAN_MOTION_DOT":"0.00000540","PERIOD":"95.592","COUNTRY_CODE":"US","MEAN_MOTION_DDOT":"0.0000000000000","RCS_SIZE":"LARGE","OBJECT_TYPE":"PAYLOAD","CLASSIFICATION_TYPE":"U","EPHEMERIS_TYPE":"0","MEAN_ANOMALY":"260.5002","OBJECT_NAME":"STARLINK-1036","TLE_LINE1":"1 44741U 19074AE  23029.91667431  .00000540  00000-0  55156-4 0  9999","ECCENTRICITY":"0.00009910"},{"SITE":"AFETR","FILE":"3765015","RA_OF_ASC_NODE":"218.8782","MEAN_ELEMENT_THEORY":"SGP4","TIME_SYSTEM":"UTC","CENTER_NAME":"EARTH","REF_FRAME":"TEME","INCLINATION":"52.9713","APOAPSIS":"471.497","DECAY_DATE":null,"ARG_OF_PERICENTER":"123.3996","PERIAPSIS":"469.915","TLE_LINE2":"2 44742  52.9713 218.8782 0001155 123.3996 236.7113 15.31712010177965","OBJECT_ID":"2019-074AF","REV_AT_EPOCH":"17796","SEMIMAJOR_AXIS":"6848.841","NORAD_CAT_ID":"44742","LAUNCH_DATE":"2019-11-11","EPOCH":"2023-01-29T22:20:45.991968","MEAN_MOTION":"15.31712010","BSTAR":"0.00196010000000","GP_ID":"223954020","ELEMENT_SET_NO":"999","COUNTRY_CODE":"US","PERIOD":"94.012","MEAN_MOTION_DOT":"0.00060989","OBJECT_TYPE":"PAYLOAD","RCS_SIZE":"LARGE","MEAN_MOTION_DDOT":"0.0000000000000","ECCENTRICITY":"0.00011550","TLE_LINE1":"1 44742U 19074AF  23029.93108787  .00060989  00000-0  19601-2 0  9992","OBJECT_NAME":"STARLINK-1037","EPHEMERIS_TYPE":"0","MEAN_ANOMALY":"236.7113","CLASSIFICATION_TYPE":"U"},{"RCS_SIZE":"LARGE","OBJECT_TYPE":"PAYLOAD","MEAN_MOTION_DDOT":"0.0000000000000","ECCENTRICITY":"0.00013290","EPHEMERIS_TYPE":"0","MEAN_ANOMALY":"274.2809","CLASSIFICATION_TYPE":"U","TLE_LINE1":"1 44743U 19074AG  23029.83374080  .00003102  00000-0  22708-3 0  9990","OBJECT_NAME":"STARLINK-1038","BSTAR":"0.00022708000000","MEAN_MOTION":"15.06396974","ELEMENT_SET_NO":"999","GP_ID":"223952769","COUNTRY_CODE":"US","MEAN_MOTION_DOT":"0.00003102","PERIOD":"95.592","DECAY_DATE":null,"PERIAPSIS":"546.302","ARG_OF_PERICENTER":"85.8331","NORAD_CAT_ID":"44743","LAUNCH_DATE":"2019-11-11","OBJECT_ID":"2019-074AG","TLE_LINE2":"2 44743  53.0521 281.1899 0001329  85.8331 274.2809 15.06396974177233","SEMIMAJOR_AXIS":"6925.358","REV_AT_EPOCH":"17723","EPOCH":"2023-01-29T20:00:35.205120","FILE":"3765015","SITE":"AFETR","RA_OF_ASC_NODE":"281.1899","MEAN_ELEMENT_THEORY":"SGP4","TIME_SYSTEM":"UTC","CENTER_NAME":"EARTH","INCLINATION":"53.0521","REF_FRAME":"TEME","APOAPSIS":"548.143"},{"TIME_SYSTEM":"UTC","CENTER_NAME":"EARTH","MEAN_ELEMENT_THEORY":"SGP4","RA_OF_ASC_NODE":"281.1414","FILE":"3765015","SITE":"AFETR","APOAPSIS":"548.076","INCLINATION":"53.0516","REF_FRAME":"TEME","ARG_OF_PERICENTER":"104.9666","PERIAPSIS":"546.372","DECAY_DATE":null,"EPOCH":"2023-01-29T20:16:30.766656","LAUNCH_DATE":"2019-11-11","NORAD_CAT_ID":"44744","REV_AT_EPOCH":"17714","SEMIMAJOR_AXIS":"6925.359","TLE_LINE2":"2 44744  53.0516 281.1414 0001230 104.9666 255.1459 15.06396519177140","OBJECT_ID":"2019-074AH","GP_ID":"223953019","ELEMENT_SET_NO":"999","MEAN_MOTION":"15.06396519","BSTAR":"0.00013020000000","MEAN_MOTION_DOT":"0.00001658","PERIOD":"95.592","COUNTRY_CODE":"US","MEAN_MOTION_DDOT":"0.0000000000000","RCS_SIZE":"LARGE","OBJECT_TYPE":"PAYLOAD","CLASSIFICATION_TYPE":"U","MEAN_ANOMALY":"255.1459","EPHEMERIS_TYPE":"0","OBJECT_NAME":"STARLINK-1039","TLE_LINE1":"1 44744U 19074AH  23029.84480054  .00001658  00000-0  13020-3 0  9992","ECCENTRICITY":"0.00012300"}];
